[{"OBJECT_NAME":"ION SCV-011","OBJECT_ID":"2023-084AB","EPOCH":"2026-03-09T22:35:16.566144","MEAN_MOTION":15.27752464,"ECCENTRICITY":0.00079323,"INCLINATION":98.1356,"RA_OF_ASC_NODE":247.1056,"ARG_OF_PERICENTER":30.3898,"MEAN_ANOMALY":329.7798,"EPHEMERIS_TYPE":0,"CLASSIFICATION_TYPE":"U","NORAD_CAT_ID":56957,"ELEMENT_SET_NO":999,"REV_AT_EPOCH":15065,"BSTAR":0.0002590454,"MEAN_MOTION_DOT":6.943e-5,"MEAN_MOTION_DDOT":0},{"OBJECT_NAME":"STARLINK-31891","OBJECT_ID":"2024-097V","EPOCH":"2026-03-09T13:24:38.093472","MEAN_MOTION":15.27609844,"ECCENTRICITY":9.02e-5,"INCLINATION":43.0032,"RA_OF_ASC_NODE":275.3703,"ARG_OF_PERICENTER":281.3494,"MEAN_ANOMALY":78.7257,"EPHEMERIS_TYPE":0,"CLASSIFICATION_TYPE":"U","NORAD_CAT_ID":59854,"ELEMENT_SET_NO":999,"REV_AT_EPOCH":10189,"BSTAR":-0.00023573713,"MEAN_MOTION_DOT":-6.749e-5,"MEAN_MOTION_DDOT":0}]
